1 37869U 11064C   25143.57154119  .00000000  00000+0  00000+0 0  9991
2 37869  65.0653  86.1408 0026038 255.6640 305.8086  2.13101756105455
1 37869U 11064C   25143.57154119  .00000000  00000+0  00000+0 0  9991
2 37869  65.0653  86.1408 0026038 255.6640 305.8086  2.13101756105466
1 37869U 11064C   25144.49032797 -.00000010  00000+0  00000+0 0  9992
2 37869  65.0657  86.1097 0026001 255.6290 290.7036  2.13101756105484
1 37869U 11064C   25144.92713509 -.00000014  00000+0  00000+0 0  9991
2 37869  65.0659  86.0949 0025986 255.6156 265.8197  2.13101759105498
1 37869U 11064C   25145.18766057 -.00000016  00000+0  00000+0 0  9998
2 37869  65.0661  86.0861 0025974 255.6075 105.6935  2.13101761105495
1 37869U 11064C   25145.42066892 -.00000017  00000+0  00000+0 0  9996
2 37869  65.0662  86.0782 0025964 255.5910 284.4656  2.13101761105502
1 37869U 11064C   25147.17811619 -.00000021  00000+0  00000+0 0  9990
2 37869  65.0670  86.0188 0025906 255.5276 192.7790  2.13101777105532
1 37869U 11064C   25147.17811619 -.00000021  00000+0  00000+0 0  9990
2 37869  65.0670  86.0188 0025906 255.5276 192.7790  2.13101777105543
1 37869U 11064C   25148.23428247 -.00000018  00000+0  00000+0 0  9995
2 37869  65.0675  85.9830 0025868 255.4797 283.0794  2.13101789105556
1 37869U 11064C   25148.23428247 -.00000018  00000+0  00000+0 0  9995
2 37869  65.0675  85.9830 0025868 255.4797 283.0794  2.13101789105567
1 37869U 11064C   25149.57348131 -.00000011  00000+0  00000+0 0  9999
2 37869  65.0682  85.9377 0025822 255.4224 230.5215  2.13101808105585
1 37869U 11064C   25149.57348131 -.00000011  00000+0  00000+0 0  9999
2 37869  65.0682  85.9377 0025822 255.4224 230.5215  2.13101808105596
1 37869U 11064C   25149.74913468 -.00000010  00000+0  00000+0 0  9998
2 37869  65.0683  85.9318 0025809 255.4112   5.2876  2.13101813105599
1 37869U 11064C   25150.50184234 -.00000006  00000+0  00000+0 0  9990
2 37869  65.0686  85.9063 0025783 255.3751 222.7738  2.13101827105619
1 37869U 11064C   25151.44535444 -.00000004  00000+0  00000+0 0  9995
2 37869  65.0690  85.8743 0025751 255.3342 226.6431  2.13101845105623
1 37869U 11064C   25151.44535444 -.00000004  00000+0  00000+0 0  9995
2 37869  65.0690  85.8743 0025751 255.3342 226.6431  2.13101845105634
1 37869U 11064C   25152.46231221 -.00000006  00000+0  00000+0 0  9996
2 37869  65.0695  85.8399 0025715 255.2866 286.8640  2.13101866105640
1 37869U 11064C   25152.46231221 -.00000006  00000+0  00000+0 0  9996
2 37869  65.0695  85.8399 0025715 255.2866 286.8640  2.13101866105651
1 37869U 11064C   25154.09183772 -.00000015  00000+0  00000+0 0  9994
2 37869  65.0703  85.7847 0025662 255.2028  97.0611  2.13101901105682
1 37869U 11064C   25154.31816304 -.00000017  00000+0  00000+0 0  9995
2 37869  65.0704  85.7771 0025655 255.1893 270.7032  2.13101905105692
1 37869U 11064C   25155.03552406 -.00000024  00000+0  00000+0 0  9993
2 37869  65.0707  85.7528 0025629 255.1486 101.0774  2.13101918105709
1 37869U 11064C   25156.21359545 -.00000033  00000+0  00000+0 0  9993
2 37869  65.0713  85.7129 0025588 255.0756 284.9244  2.13101933105739
1 37869U 11064C   25156.73013149 -.00000037  00000+0  00000+0 0  9991
2 37869  65.0715  85.6954 0025571 255.0426 321.2253  2.13101939105733
1 37869U 11064C   25156.73013149 -.00000037  00000+0  00000+0 0  9991
2 37869  65.0715  85.6954 0025571 255.0426 321.2253  2.13101939105744
1 37869U 11064C   25156.99990051 -.00000039  00000+0  00000+0 0  9997
2 37869  65.0716  85.6863 0025567 255.0230 168.2021  2.13101945105752
1 37869U 11064C   25158.54971786 -.00000042  00000+0  00000+0 0  9998
2 37869  65.0723  85.6339 0025519 254.9353 277.2538  2.13101953105774
1 37869U 11064C   25158.54971786 -.00000042  00000+0  00000+0 0  9998
2 37869  65.0723  85.6339 0025519 254.9353 277.2538  2.13101953105785
1 37869U 11064C   25159.48497855 -.00000040  00000+0  00000+0 0  9990
2 37869  65.0726  85.6023 0025489 254.8878 274.7998  2.13101960105808
1 37869U 11064C   25160.43586388 -.00000035  00000+0  00000+0 0  9991
2 37869  65.0730  85.5701 0025456 254.8332 284.3393  2.13101959105820
1 37869U 11064C   25161.41645409 -.00000027  00000+0  00000+0 0  9991
2 37869  65.0735  85.5369 0025416 254.7670 316.6793  2.13101962105844
1 37869U 11064C   25162.79722683 -.00000014  00000+0  00000+0 0  9999
2 37869  65.0741  85.4902 0025365 254.6767 296.0489  2.13101951105865
1 37869U 11064C   25162.79722683 -.00000014  00000+0  00000+0 0  9999
2 37869  65.0741  85.4902 0025365 254.6767 296.0489  2.13101951105876
1 37869U 11064C   25163.02957941 -.00000012  00000+0  00000+0 0  9991
2 37869  65.0742  85.4823 0025363 254.6687 114.3095  2.13101951105884
1 37869U 11064C   25164.60206840  .00000001  00000+0  00000+0 0  9998
2 37869  65.0749  85.4291 0025303 254.5694 240.7658  2.13101926105905
1 37869U 11064C   25164.60206840  .00000001  00000+0  00000+0 0  9998
2 37869  65.0749  85.4291 0025303 254.5694 240.7658  2.13101926105916
1 37869U 11064C   25165.52708221  .00000006  00000+0  00000+0 0  9995
2 37869  65.0753  85.3978 0025271 254.5120 230.4605  2.13101909105931
1 37869U 11064C   25166.51309314  .00000008  00000+0  00000+0 0  9997
2 37869  65.0757  85.3644 0025237 254.4528 266.9517  2.13101887105940
1 37869U 11064C   25167.47213979  .00000006  00000+0  00000+0 0  9992
2 37869  65.0762  85.3320 0025209 254.4036 282.7471  2.13101876105976
1 37869U 11064C   25167.99631608  .00000004  00000+0  00000+0 0  9990
2 37869  65.0764  85.3142 0025191 254.3742 324.9055  2.13101863105976
1 37869U 11064C   25168.85788274 -.00000002  00000+0  00000+0 0  9997
2 37869  65.0768  85.2850 0025162 254.3296 265.9131  2.13101852106009
1 37869U 11064C   25169.79633296 -.00000011  00000+0  00000+0 0  9994
2 37869  65.0772  85.2532 0025128 254.2765 265.9115  2.13101844106017
1 37869U 11064C   25169.79633296 -.00000011  00000+0  00000+0 0  9994
2 37869  65.0772  85.2532 0025128 254.2765 265.9115  2.13101844106028
1 37869U 11064C   25170.27553400 -.00000016  00000+0  00000+0 0  9992
2 37869  65.0775  85.2370 0025110 254.2462 273.5674  2.13101835106032
1 37869U 11064C   25177.33179950 -.00000025  00000+0  00000+0 0  9990
2 37869  65.0809  84.9981 0024868 253.7707 287.3558  2.13101881106179
1 37869U 11064C   25177.33179950 -.00000025  00000+0  00000+0 0  9990
2 37869  65.0809  84.9981 0024868 253.7707 287.3558  2.13101881106180
1 37869U 11064C   25178.06176612 -.00000022  00000+0  00000+0 0  9990
2 37869  65.0813  84.9735 0024870 253.7700 127.3609  2.13101902106205
1 37869U 11064C   25179.20687652 -.00000020  00000+0  00000+0 0  9996
2 37869  65.0818  84.9347 0024828 253.6778 285.9403  2.13101914106213
1 37869U 11064C   25179.20687652 -.00000020  00000+0  00000+0 0  9996
2 37869  65.0818  84.9347 0024828 253.6778 285.9403  2.13101914106224
1 37869U 11064C   25179.85312454 -.00000021  00000+0  00000+0 0  9993
2 37869  65.0821  84.9128 0024791 253.6008  61.7953  2.13101928106236
1 37869U 11064C   25180.54827363 -.00000024  00000+0  00000+0 0  9994
2 37869  65.0824  84.8892 0024771 253.5468 235.1428  2.13101941106243
1 37869U 11064C   25180.54827363 -.00000024  00000+0  00000+0 0  9994
2 37869  65.0824  84.8892 0024771 253.5468 235.1428  2.13101941106254
1 37869U 11064C   25181.52496222 -.00000031  00000+0  00000+0 0  9997
2 37869  65.0827  84.8561 0024737 253.4630 264.5069  2.13101957106278
1 37869U 11064C   25182.49975515 -.00000039  00000+0  00000+0 0  9999
2 37869  65.0831  84.8232 0024707 253.3807 292.4153  2.13101971106281
1 37869U 11064C   25182.49975515 -.00000039  00000+0  00000+0 0  9999
2 37869  65.0831  84.8232 0024707 253.3807 292.4153  2.13101971106292
1 37869U 11064C   25183.38263937 -.00000045  00000+0  00000+0 0  9993
2 37869  65.0835  84.7932 0024679 253.2965 249.8167  2.13101984106312
1 37869U 11064C   25184.83848586 -.00000052  00000+0  00000+0 0  9991
2 37869  65.0841  84.7441 0024638 253.1543 286.8321  2.13102001106336
1 37869U 11064C   25184.83848586 -.00000052  00000+0  00000+0 0  9991
2 37869  65.0841  84.7441 0024638 253.1543 286.8321  2.13102001106347
1 37869U 11064C   25185.31621044 -.00000053  00000+0  00000+0 0  9994
2 37869  65.0844  84.7279 0024641 253.1509 293.3287  2.13102011106351
1 37869U 11064C   25188.58956436 -.00000035  00000+0  00000+0 0  9992
2 37869  65.0858  84.6171 0024568 252.9287 284.7507  2.13102016106415
1 37869U 11064C   25188.58956436 -.00000035  00000+0  00000+0 0  9992
2 37869  65.0858  84.6171 0024568 252.9287 284.7507  2.13102016106426
1 37869U 11064C   25189.54267728 -.00000026  00000+0  00000+0 0  9998
2 37869  65.0863  84.5849 0024544 252.8646 296.0087  2.13102007106446
1 37869U 11064C   25191.38726382 -.00000007  00000+0  00000+0 0  9998
2 37869  65.0872  84.5224 0024490 252.7152 271.2587  2.13101978106473
1 37869U 11064C   25191.38726382 -.00000007  00000+0  00000+0 0  9998
2 37869  65.0872  84.5224 0024490 252.7152 271.2587  2.13101978106484
1 37869U 11064C   25193.04551679  .00000004  00000+0  00000+0 0  9994
2 37869  65.0881  84.4663 0024428 252.5314 103.5942  2.13101939106512
1 37869U 11064C   25193.28586505  .00000005  00000+0  00000+0 0  9997
2 37869  65.0882  84.4582 0024421 252.5167 287.9952  2.13101926106527
1 37869U 11064C   25195.64025777  .00000003  00000+0  00000+0 0  9996
2 37869  65.0894  84.3785 0024362 252.3523 294.3648  2.13101878106566
1 37869U 11064C   25195.64025777  .00000003  00000+0  00000+0 0  9996
2 37869  65.0894  84.3785 0024362 252.3523 294.3648  2.13101878106577
1 37869U 11064C   25198.44904612 -.00000020  00000+0  00000+0 0  9991
2 37869  65.0908  84.2833 0024285 252.1430 289.3751  2.13101840106629
1 37869U 11064C   25198.44904612 -.00000020  00000+0  00000+0 0  9991
2 37869  65.0908  84.2833 0024285 252.1430 289.3751  2.13101840106630
1 37869U 11064C   25198.91989233 -.00000024  00000+0  00000+0 0  9999
2 37869  65.0911  84.2674 0024292 252.1063 290.6284  2.13101845106649
